[{"OBJECT_NAME":"STARLINK-31006","OBJECT_ID":"2024-038B","EPOCH":"2026-03-09T02:53:16.014336","MEAN_MOTION":15.27569142,"ECCENTRICITY":4.529e-5,"INCLINATION":43.0055,"RA_OF_ASC_NODE":339.8224,"ARG_OF_PERICENTER":291.161,"MEAN_ANOMALY":68.9193,"EPHEMERIS_TYPE":0,"CLASSIFICATION_TYPE":"U","NORAD_CAT_ID":59024,"ELEMENT_SET_NO":999,"REV_AT_EPOCH":11525,"BSTAR":-4.3455196e-5,"MEAN_MOTION_DOT":-1.457e-5,"MEAN_MOTION_DDOT":0},{"OBJECT_NAME":"FENGYUN 1C DEB","OBJECT_ID":"1999-025EJQ","EPOCH":"2026-03-08T21:27:56.444256","MEAN_MOTION":15.23229897,"ECCENTRICITY":0.00101559,"INCLINATION":98.6645,"RA_OF_ASC_NODE":227.592,"ARG_OF_PERICENTER":263.6857,"MEAN_ANOMALY":96.3219,"EPHEMERIS_TYPE":0,"CLASSIFICATION_TYPE":"U","NORAD_CAT_ID":37470,"ELEMENT_SET_NO":999,"REV_AT_EPOCH":66762,"BSTAR":0.011057202,"MEAN_MOTION_DOT":0.00271626,"MEAN_MOTION_DDOT":0}]
